{"type":"FeatureCollection","features":[{"type":"Feature","properties":{"CdBH":"A","LbBH":"ESCAUT SOMME"},"geometry":{"type":"MultiPolygon","coordinates":[[[[4.084726,50.310962],[4.117277,50.304318],[4.136002,50.256908],[4.167608,50.259699],[4.149395,50.275365],[4.162955,50.288915],[4.221852,50.256954],[4.1507,50.213286],[4.155899,50.164347],[4.126918,50.134919],[4.199235,50.134243],[4.196881,50.107477],[4.224907,50.085623],[4.226355,50.065406],[4.162224,50.048982],[4.084022,49.994025],[4.035445,49.992314],[4.002844,49.967011],[3.905074,49.987794],[3.843869,50.029349],[3.723243,50.029308],[3.634442,50.005891],[3.555117,49.977728],[3.552726,49.956113],[3.517476,49.941734],[3.511279,49.920676],[3.445601,49.898189],[3.408183,49.865992],[3.413648,49.852231],[3.366089,49.829197],[3.379664,49.819698],[3.310116,49.788908],[3.316666,49.768192],[3.291512,49.730701],[3.226913,49.731668],[3.206721,49.69643],[3.130643,49.673647],[3.07991,49.691697],[3.004983,49.675034],[2.96031,49.636995],[2.918352,49.673137],[2.884726,49.651659],[2.876515,49.625507],[2.831641,49.614679],[2.75016,49.635067],[2.62459,49.578102],[2.611057,49.546806],[2.435479,49.553185],[2.336338,49.57797],[2.29492,49.557341],[2.209297,49.562212],[2.130942,49.607092],[2.066576,49.597219],[1.9143,49.659085],[1.813332,49.669018],[1.798456,49.709437],[1.816217,49.719627],[1.816593,49.740516],[1.798722,49.747191],[1.955748,49.821367],[1.711507,49.907746],[1.705197,49.919789],[1.767427,49.966487],[1.728458,50.01099],[1.527081,50.052363],[1.441683,50.079666],[1.433897,50.095527],[1.492435,50.184882],[1.527889,50.208199],[1.56859,50.21724],[1.558003,50.209032],[1.592909,50.184441],[1.624116,50.190928],[1.658238,50.174633],[1.688226,50.188071],[1.675598,50.209706],[1.623356,50.21408],[1.594588,50.257797],[1.550462,50.259469],[1.537895,50.281187],[1.555966,50.361505],[1.624971,50.366385],[1.626746,50.359925],[1.636518,50.353792],[1.645017,50.35054],[1.627221,50.370983],[1.583213,50.376195],[1.555877,50.397059],[1.583055,50.534781],[1.58953,50.539539],[1.598683,50.526962],[1.638438,50.509135],[1.66236,50.50672],[1.628714,50.518248],[1.576901,50.571193],[1.578633,50.640063],[1.560501,50.699267],[1.57346,50.716255],[1.562277,50.725029],[1.602329,50.72165],[1.593386,50.750854],[1.603135,50.803135],[1.614841,50.803534],[1.588819,50.825246],[1.581852,50.870992],[1.643861,50.879594],[1.711978,50.929317],[1.780362,50.954864],[2.083935,51.008741],[2.12009,50.985311],[2.107886,51.004161],[2.14865,51.034423],[2.178291,51.000529],[2.178488,51.016011],[2.253652,51.039389],[2.178393,51.019663],[2.195179,51.036602],[2.165862,51.044382],[2.214138,51.031683],[2.349752,51.060726],[2.38155,51.048635],[2.546002,51.089447],[2.574068,51.003298],[2.606909,50.990913],[2.63268,50.946009],[2.59008,50.919276],[2.608088,50.910164],[2.612816,50.867642],[2.599071,50.848842],[2.616389,50.847808],[2.634976,50.812756],[2.669309,50.822462],[2.724256,50.809945],[2.746053,50.767595],[2.783118,50.75071],[2.790207,50.725177],[2.848386,50.722915],[2.905997,50.692411],[2.951988,50.752087],[3.054288,50.780328],[3.087265,50.773021],[3.1115,50.794298],[3.149766,50.790585],[3.205107,50.712446],[3.261104,50.701591],[3.265431,50.676793],[3.240115,50.658564],[3.279472,50.595645],[3.287699,50.526402],[3.377268,50.490938],[3.449151,50.506604],[3.474034,50.533607],[3.519911,50.52366],[3.50098,50.486994],[3.607285,50.496891],[3.664218,50.453174],[3.67366,50.389725],[3.657144,50.36964],[3.710265,50.303136],[3.709195,50.319006],[3.731508,50.311278],[3.739235,50.347647],[3.804609,50.355796],[3.887905,50.341021],[3.886058,50.327061],[4.024617,50.358874],[4.084726,50.310962]]]]}},{"type":"Feature","properties":{"CdBH":"B1","LbBH":"MEUSE"},"geometry":{"type":"MultiPolygon","coordinates":[[[[4.65091,49.61882],[4.625314,49.632417],[4.514135,49.634874],[4.495543,49.662304],[4.453439,49.679731],[4.453014,49.709052],[4.426811,49.717628],[4.434286,49.739661],[4.364189,49.743108],[4.358508,49.778425],[4.421797,49.827637],[4.371962,49.834546],[4.347919,49.905614],[4.451566,49.919034],[4.329143,49.952265],[4.445797,49.937169],[4.523612,49.950399],[4.582079,49.983562],[4.693148,49.995223],[4.684627,50.027277],[4.699675,50.053564],[4.680186,50.066458],[4.692952,50.084731],[4.824973,50.169124],[4.832238,50.153231],[4.875674,50.154007],[4.897075,50.137791],[4.867181,50.118701],[4.872134,50.087732],[4.85493,50.10102],[4.837561,50.093698],[4.837935,50.067107],[4.818586,50.061808],[4.841141,50.038606],[4.789852,49.969036],[4.848125,49.94841],[4.889988,49.909263],[4.863081,49.867255],[4.848303,49.868019],[4.876933,49.819398],[4.85167,49.793188],[4.905737,49.785478],[4.99633,49.800498],[5.014906,49.779505],[5.093904,49.763494],[5.125641,49.712385],[5.158216,49.716824],[5.165307,49.693026],[5.269185,49.696072],[5.332682,49.653508],[5.304918,49.630053],[5.312052,49.611921],[5.35151,49.630833],[5.42777,49.596649],[5.437971,49.569737],[5.456532,49.566958],[5.44142,49.552139],[5.465315,49.538497],[5.447333,49.517874],[5.465266,49.498893],[5.55605,49.529251],[5.610987,49.505927],[5.642886,49.550699],[5.747381,49.53943],[5.771459,49.563246],[5.817064,49.537],[5.836959,49.542475],[5.850044,49.508946],[5.897404,49.496641],[5.890936,49.470343],[5.941409,49.431591],[5.936648,49.410943],[5.896302,49.365382],[5.846499,49.362953],[5.840702,49.333735],[5.819584,49.332172],[5.810692,49.310569],[5.831118,49.299689],[5.790995,49.269249],[5.791838,49.234161],[5.760896,49.226092],[5.752401,49.246415],[5.703968,49.248927],[5.669631,49.283948],[5.652095,49.283147],[5.648926,49.302415],[5.579756,49.300337],[5.548552,49.293649],[5.550312,49.272985],[5.431892,49.26003],[5.422015,49.234155],[5.438855,49.216736],[5.420878,49.207183],[5.462556,49.183237],[5.482726,49.12585],[5.547746,49.090256],[5.575993,49.033969],[5.680795,48.975144],[5.679789,48.929802],[5.608005,48.849167],[5.630634,48.814037],[5.611856,48.80009],[5.745023,48.75491],[5.741095,48.719288],[5.797368,48.70206],[5.723891,48.651432],[5.739273,48.623972],[5.785771,48.636655],[5.818761,48.624712],[5.835025,48.606795],[5.819259,48.591972],[5.842399,48.571592],[5.831352,48.544565],[5.872042,48.523855],[5.905251,48.527681],[5.962867,48.489392],[5.933692,48.460523],[5.97483,48.434135],[5.964022,48.415803],[6.019827,48.351611],[5.993424,48.331264],[6.007969,48.284566],[5.992981,48.269424],[6.011148,48.239938],[5.995351,48.231312],[5.999006,48.216122],[6.029409,48.185916],[6.011201,48.164253],[5.98165,48.167874],[5.967691,48.139187],[5.90161,48.126541],[5.880538,48.09815],[5.825019,48.070427],[5.819824,48.045692],[5.674792,48.042579],[5.619479,48.006791],[5.647172,47.996066],[5.635331,47.970749],[5.52467,47.938221],[5.47354,47.964713],[5.487113,48.001293],[5.462331,48.043581],[5.48012,48.056064],[5.465062,48.068076],[5.50789,48.097029],[5.511617,48.130946],[5.491068,48.151433],[5.521849,48.163381],[5.513877,48.192843],[5.542428,48.241643],[5.47343,48.247994],[5.479945,48.265898],[5.448059,48.299544],[5.525918,48.320226],[5.555747,48.344583],[5.547129,48.380829],[5.583153,48.420667],[5.567916,48.444462],[5.605179,48.522193],[5.560268,48.561015],[5.52909,48.55586],[5.538802,48.573232],[5.522276,48.593632],[5.540021,48.652404],[5.50743,48.667718],[5.503065,48.687725],[5.465872,48.691906],[5.471653,48.707999],[5.452155,48.713793],[5.44895,48.759474],[5.421396,48.77498],[5.432436,48.816797],[5.412914,48.830516],[5.421718,48.847063],[5.370145,48.885839],[5.397924,48.91354],[5.390432,48.93502],[5.358905,48.938872],[5.324611,48.978344],[5.273851,48.995045],[5.31191,49.015208],[5.312927,49.060406],[5.284579,49.064067],[5.285315,49.097077],[5.25964,49.108892],[5.246739,49.15188],[5.196721,49.178782],[5.191252,49.215954],[5.171743,49.217064],[5.15957,49.238595],[5.166191,49.267595],[5.079693,49.288588],[5.058936,49.325027],[5.080059,49.39759],[5.01984,49.423486],[5.018071,49.455513],[4.97976,49.47322],[4.945411,49.458169],[4.921722,49.425093],[4.862631,49.413441],[4.865432,49.398175],[4.804862,49.40691],[4.800781,49.425714],[4.826771,49.443109],[4.82695,49.467218],[4.735829,49.475393],[4.759578,49.5328],[4.659953,49.584458],[4.65091,49.61882]]]]}},{"type":"Feature","properties":{"CdBH":"C","LbBH":"RHIN"},"geometry":{"type":"MultiPolygon","coordinates":[[[[5.788548,49.264734],[5.831652,49.306328],[5.810692,49.310569],[5.819584,49.332172],[5.840702,49.333735],[5.845908,49.362385],[5.896302,49.365382],[5.936648,49.410943],[5.941409,49.431591],[5.890936,49.470343],[5.897404,49.496641],[5.972382,49.491122],[5.97417,49.464821],[5.988003,49.461462],[5.979008,49.452921],[6.042155,49.447803],[6.057769,49.466206],[6.100816,49.452882],[6.127857,49.493733],[6.162168,49.493234],[6.155761,49.504112],[6.240515,49.514563],[6.333778,49.46689],[6.368901,49.45982],[6.428569,49.476858],[6.541892,49.43244],[6.557279,49.419487],[6.540524,49.401146],[6.601856,49.366781],[6.565843,49.347353],[6.615799,49.301284],[6.670208,49.280196],[6.660962,49.257937],[6.689468,49.24961],[6.695688,49.215011],[6.722951,49.218525],[6.731379,49.205907],[6.711199,49.188396],[6.738039,49.163359],[6.781872,49.168157],[6.834467,49.15138],[6.861767,49.179448],[6.837789,49.213406],[6.85925,49.222524],[6.892441,49.208822],[6.925448,49.223591],[7.011215,49.187426],[7.034986,49.191277],[7.027578,49.170044],[7.051591,49.112977],[7.089797,49.130548],[7.080144,49.148781],[7.101973,49.155718],[7.11321,49.151832],[7.103877,49.138477],[7.126189,49.141915],[7.157559,49.120688],[7.245304,49.129803],[7.293744,49.115102],[7.323708,49.142685],[7.362581,49.143337],[7.366098,49.172468],[7.445065,49.184305],[7.432413,49.165712],[7.493991,49.169639],[7.506014,49.151246],[7.489578,49.13653],[7.52898,49.097204],[7.629946,49.073476],[7.631664,49.054964],[7.758182,49.045342],[7.794588,49.065788],[7.866828,49.033152],[7.888624,49.049049],[7.916695,49.040975],[7.933756,49.058031],[7.975406,49.026865],[8.049227,49.014136],[8.08777,48.989524],[8.227028,48.973497],[8.145071,48.900311],[8.092077,48.806173],[8.030101,48.787199],[8.013973,48.76072],[7.972271,48.758013],[7.963976,48.722127],[7.842193,48.643736],[7.80143,48.588369],[7.805184,48.5147],[7.767613,48.489039],[7.732404,48.393061],[7.744672,48.327883],[7.694164,48.302482],[7.666213,48.220824],[7.577391,48.120194],[7.568616,48.034521],[7.622086,47.971596],[7.583094,47.930858],[7.581324,47.895786],[7.555959,47.877816],[7.562869,47.842716],[7.52962,47.778902],[7.548149,47.731474],[7.51098,47.696989],[7.521144,47.663728],[7.593016,47.599967],[7.584942,47.575588],[7.499131,47.539913],[7.531426,47.528284],[7.522937,47.514242],[7.497802,47.521223],[7.51098,47.496658],[7.475255,47.479995],[7.434557,47.497928],[7.421223,47.480171],[7.45566,47.470497],[7.385571,47.431617],[7.330058,47.441642],[7.245923,47.42025],[7.232818,47.438812],[7.170772,47.443043],[7.188638,47.446981],[7.193134,47.466556],[7.131682,47.502721],[7.155116,47.524755],[7.109957,47.557442],[7.120926,47.575778],[7.084336,47.621569],[7.048078,47.631245],[7.063702,47.66075],[7.031247,47.694907],[7.041373,47.730042],[7.009835,47.754017],[6.869711,47.782303],[6.844878,47.824974],[6.822734,47.813082],[6.784791,47.850882],[6.633259,47.907852],[6.639431,47.917848],[6.597255,47.946384],[6.603886,47.964587],[6.567422,48.004817],[6.498724,47.995573],[6.505557,48.00564],[6.483653,48.032534],[6.45739,48.032335],[6.467495,48.045621],[6.439418,48.063581],[6.433142,48.115846],[6.44431,48.121983],[6.416148,48.114322],[6.391659,48.137636],[6.340659,48.136507],[6.300971,48.172067],[6.247981,48.156333],[6.247084,48.127103],[6.218157,48.122346],[6.232531,48.107645],[6.187986,48.090436],[6.125958,48.107041],[6.062596,48.161328],[6.011201,48.164253],[6.029409,48.185916],[5.999006,48.216122],[5.995351,48.231312],[6.011148,48.239938],[5.992981,48.269424],[6.007969,48.284566],[5.993424,48.331264],[6.019827,48.351611],[5.964022,48.415803],[5.97483,48.434135],[5.933692,48.460523],[5.962867,48.489392],[5.905251,48.527681],[5.872042,48.523855],[5.831352,48.544565],[5.842399,48.571592],[5.819259,48.591972],[5.835025,48.606795],[5.818761,48.624712],[5.785771,48.636655],[5.739273,48.623972],[5.723891,48.651432],[5.797368,48.70206],[5.741095,48.719288],[5.745023,48.75491],[5.611856,48.80009],[5.630634,48.814037],[5.608005,48.849167],[5.679789,48.929802],[5.680795,48.975144],[5.575993,49.033969],[5.547746,49.090256],[5.482726,49.12585],[5.462556,49.183237],[5.420878,49.207183],[5.438855,49.216736],[5.422015,49.234155],[5.431892,49.26003],[5.550312,49.272985],[5.553348,49.295356],[5.648926,49.302415],[5.652621,49.282773],[5.669631,49.283948],[5.703968,49.248927],[5.752401,49.246415],[5.760896,49.226092],[5.791838,49.234161],[5.788548,49.264734]]]]}},{"type":"Feature","properties":{"CdBH":"D","LbBH":"RHONE MEDITERRANEE"},"geometry":{"type":"MultiPolygon","coordinates":[[[[4.396824,43.448188],[4.16562,43.471915],[4.110716,43.509023],[4.138258,43.526105],[4.121628,43.547075],[4.007008,43.551658],[3.886151,43.506784],[3.797043,43.441213],[3.725232,43.415924],[3.725702,43.401286],[3.643385,43.38336],[3.509574,43.271718],[3.430024,43.290204],[3.368455,43.27868],[3.280186,43.2393],[3.178187,43.166345],[3.084101,43.055803],[3.043557,42.963485],[3.039448,42.931378],[3.060596,42.917556],[3.034803,42.661021],[3.051714,42.544223],[3.14184,42.515796],[3.122915,42.505719],[3.136323,42.498508],[3.127484,42.487369],[3.155559,42.47718],[3.174479,42.43521],[3.087157,42.425127],[3.039981,42.473939],[2.967345,42.46556],[2.947341,42.482175],[2.918335,42.456589],[2.838833,42.459517],[2.778369,42.412198],[2.717742,42.421753],[2.673079,42.40445],[2.670153,42.386823],[2.6515,42.389686],[2.644682,42.360165],[2.561665,42.357492],[2.533019,42.332923],[2.481667,42.34043],[2.433897,42.376913],[2.432744,42.394608],[2.257123,42.438685],[2.201209,42.416506],[2.149555,42.420929],[2.085266,42.362084],[2.024832,42.35525],[1.964818,42.378378],[1.957789,42.42412],[1.927353,42.440751],[1.81358,42.459575],[1.786475,42.485147],[1.730466,42.492439],[1.719826,42.514637],[1.783241,42.527625],[1.791481,42.558548],[1.873348,42.582143],[1.909734,42.621571],[1.933042,42.604568],[1.972178,42.617232],[2.002169,42.66123],[2.006888,42.671419],[1.982798,42.671645],[1.966888,42.700088],[1.992185,42.734394],[1.949107,42.736864],[1.906946,42.767194],[1.945116,42.783233],[1.923188,42.800076],[1.920922,42.828582],[1.901805,42.834971],[1.973928,42.873223],[1.950325,42.894545],[2.014439,42.893582],[2.035579,42.861737],[2.06741,42.850367],[2.072524,42.871012],[2.096487,42.865103],[2.088954,42.872918],[2.109522,42.874545],[2.116547,42.89605],[2.074139,42.929914],[2.09512,43.020897],[1.998058,43.112056],[2.003264,43.147065],[2.048843,43.166621],[1.983455,43.197881],[1.982679,43.217071],[1.79768,43.340339],[1.832091,43.353741],[1.829923,43.380362],[1.871496,43.401037],[1.882787,43.444776],[1.967803,43.403739],[2.018558,43.415879],[2.142321,43.393327],[2.255217,43.472165],[2.380466,43.42216],[2.426398,43.385846],[2.452229,43.389311],[2.469926,43.437389],[2.587306,43.411941],[2.599793,43.430298],[2.722105,43.43856],[2.657453,43.488775],[2.671181,43.515403],[2.778027,43.538949],[2.789746,43.580173],[2.854861,43.603672],[2.908235,43.603182],[2.929321,43.631143],[2.950061,43.633272],[2.922589,43.686209],[2.983795,43.708957],[3.008986,43.701716],[3.036395,43.72137],[3.023003,43.74564],[3.060358,43.785187],[3.048356,43.801375],[3.064189,43.80929],[3.064371,43.835647],[3.208699,43.872178],[3.237313,43.864178],[3.242542,43.879434],[3.312709,43.904166],[3.346749,43.946188],[3.336487,43.974596],[3.349505,43.989915],[3.369651,43.980982],[3.416608,44.015385],[3.525731,44.028589],[3.539153,44.050364],[3.591682,44.06751],[3.538245,44.096082],[3.541783,44.117039],[3.625011,44.117829],[3.653833,44.146002],[3.603481,44.175182],[3.625491,44.247267],[3.686537,44.226626],[3.730324,44.247224],[3.763693,44.240431],[3.766539,44.256447],[3.801715,44.266579],[3.784187,44.277699],[3.815249,44.301091],[3.816647,44.326847],[3.874035,44.393972],[3.750429,44.426605],[3.737452,44.47585],[3.76561,44.484292],[3.786243,44.515287],[3.722967,44.555002],[3.74706,44.597624],[3.791369,44.591033],[3.797845,44.571177],[3.834261,44.56641],[3.839664,44.552579],[3.865952,44.56367],[3.889389,44.552055],[3.907681,44.560225],[3.908449,44.58832],[3.947814,44.595378],[3.95981,44.618418],[4.050708,44.635508],[4.02201,44.665032],[4.024233,44.701314],[4.114331,44.709109],[4.153596,44.749369],[4.1954,44.744659],[4.244281,44.796097],[4.246511,44.815887],[4.179767,44.892885],[4.241455,44.974021],[4.382,45.032899],[4.370807,45.039382],[4.395105,45.071051],[4.382413,45.086219],[4.408718,45.101765],[4.404181,45.133051],[4.433,45.137341],[4.471477,45.176988],[4.490538,45.2253],[4.457087,45.255676],[4.481472,45.296581],[4.473926,45.311767],[4.530224,45.358194],[4.421117,45.432741],[4.456792,45.468406],[4.448718,45.510867],[4.487386,45.520371],[4.496803,45.565823],[4.563235,45.58095],[4.603516,45.625541],[4.567215,45.650264],[4.566459,45.677346],[4.579749,45.683856],[4.559315,45.706459],[4.537732,45.686554],[4.366362,45.653153],[4.365478,45.671243],[4.450334,45.734279],[4.445426,45.792441],[4.317595,45.906324],[4.377643,45.917442],[4.384895,45.961246],[4.415382,45.982627],[4.444405,46.066221],[4.417257,46.137996],[4.488872,46.199991],[4.492133,46.239812],[4.463667,46.25491],[4.473506,46.281752],[4.427584,46.326019],[4.484186,46.423215],[4.477678,46.463496],[4.459394,46.477789],[4.485037,46.495869],[4.461665,46.508678],[4.474504,46.524442],[4.466897,46.547057],[4.479968,46.551145],[4.459154,46.575633],[4.48479,46.614855],[4.479453,46.631935],[4.534324,46.657614],[4.509895,46.677701],[4.522087,46.691363],[4.51327,46.722966],[4.536147,46.735934],[4.464893,46.752906],[4.499802,46.797591],[4.496344,46.816425],[4.522371,46.83544],[4.532717,46.88197],[4.592922,46.933567],[4.580401,46.955427],[4.637118,46.977714],[4.660973,47.058013],[4.582503,47.100653],[4.556127,47.243877],[4.595257,47.290247],[4.691124,47.29006],[4.775458,47.352766],[4.778468,47.398726],[4.739759,47.483237],[4.783359,47.533502],[4.767245,47.546025],[4.798911,47.565147],[4.797852,47.58619],[4.824984,47.602611],[4.880574,47.598627],[4.947551,47.660404],[4.937547,47.666397],[4.951434,47.690023],[4.980129,47.672943],[5.061898,47.723252],[5.157889,47.720687],[5.171834,47.767083],[5.271033,47.807089],[5.402199,47.804246],[5.414349,47.831827],[5.473883,47.85123],[5.472501,47.892075],[5.510873,47.906933],[5.496036,47.911278],[5.504774,47.94145],[5.635331,47.970749],[5.647172,47.996066],[5.619479,48.006791],[5.675962,48.043041],[5.821269,48.046235],[5.825873,48.071166],[5.909978,48.130967],[5.967691,48.139187],[5.98165,48.167874],[6.062596,48.161328],[6.125958,48.107041],[6.187986,48.090436],[6.232531,48.107645],[6.218157,48.122346],[6.247084,48.127103],[6.247981,48.156333],[6.300971,48.172067],[6.340659,48.136507],[6.391659,48.137636],[6.416148,48.114322],[6.443989,48.122175],[6.433142,48.115846],[6.439418,48.063581],[6.467495,48.045621],[6.45739,48.032335],[6.483653,48.032534],[6.505557,48.00564],[6.498724,47.995573],[6.567422,48.004817],[6.603886,47.964587],[6.597255,47.946384],[6.639431,47.917848],[6.633259,47.907852],[6.784791,47.850882],[6.822734,47.813082],[6.844878,47.824974],[6.869711,47.782303],[7.009835,47.754017],[7.041373,47.730042],[7.031247,47.694907],[7.063702,47.66075],[7.048078,47.631245],[7.084336,47.621569],[7.120926,47.575778],[7.109957,47.557442],[7.155116,47.524755],[7.131682,47.502721],[7.193134,47.466556],[7.188638,47.446981],[7.170394,47.443284],[7.232818,47.438812],[7.246298,47.422198],[7.209874,47.36627],[7.150459,47.320271],[6.985921,47.262623],[6.973991,47.237034],[6.839993,47.135407],[6.830472,47.082883],[6.801739,47.044814],[6.65355,47.021712],[6.618679,46.992039],[6.475354,46.959409],[6.442984,46.918021],[6.48872,46.907608],[6.464685,46.888457],[6.46001,46.852307],[6.430995,46.81232],[6.458355,46.788967],[6.479723,46.792361],[6.469263,46.774147],[6.282035,46.689866],[6.111617,46.577592],[6.156563,46.545332],[6.072681,46.465702],[6.086207,46.442604],[6.064006,46.416223],[6.216997,46.358943],[6.170444,46.29585],[6.153518,46.211029],[6.120729,46.201069],[6.172927,46.212129],[6.198167,46.263471],[6.30491,46.366622],[6.344712,46.369908],[6.389289,46.340262],[6.47802,46.375526],[6.511225,46.404492],[6.544849,46.394692],[6.724261,46.407901],[6.805198,46.394102],[6.772072,46.350363],[6.864802,46.280226],[6.803663,46.204343],[6.812702,46.181637],[6.792035,46.162899],[6.796535,46.138616],[6.899922,46.123897],[6.875575,46.047735],[6.937546,46.064448],[6.985099,46.004654],[7.010474,45.997386],[7.023342,45.979276],[7.009017,45.968966],[7.037441,45.954533],[7.044888,45.922406],[7.00742,45.903283],[6.991449,45.867985],[6.941367,45.846931],[6.879136,45.849149],[6.868474,45.824662],[6.818888,45.836204],[6.803571,45.815908],[6.808421,45.725151],[6.847069,45.689675],[6.90303,45.680694],[6.914828,45.651735],[7.001114,45.639566],[6.977847,45.589885],[6.995384,45.575637],[6.999979,45.50479],[7.053169,45.495797],[7.048826,45.472683],[7.103029,45.468443],[7.114351,45.433485],[7.185881,45.403223],[7.163181,45.38136],[7.164497,45.360528],[7.110693,45.326509],[7.137593,45.255693],[7.079933,45.212765],[7.011872,45.183804],[6.935102,45.192348],[6.932563,45.17275],[6.891601,45.167033],[6.893913,45.137158],[6.847885,45.1272],[6.767941,45.15974],[6.740025,45.136742],[6.680069,45.140123],[6.626977,45.104704],[6.674238,45.054163],[6.673884,45.019618],[6.745396,45.014307],[6.75168,44.996633],[6.729179,44.98632],[6.75941,44.949],[6.750707,44.905654],[6.863239,44.850612],[6.912511,44.844797],[6.931212,44.863526],[7.006421,44.839647],[7.024066,44.822797],[6.9994,44.789676],[7.024616,44.769596],[7.029912,44.729762],[7.065783,44.713604],[7.075589,44.690306],[7.071628,44.679475],[7.028984,44.691401],[6.962647,44.677767],[6.947624,44.65371],[6.968373,44.619804],[6.949262,44.619175],[6.915497,44.559094],[6.87856,44.55434],[6.853515,44.529277],[6.876708,44.481271],[6.948087,44.429702],[6.89274,44.42074],[6.887435,44.361051],[6.921875,44.35148],[6.960519,44.31085],[6.957535,44.295105],[6.995715,44.279878],[7.008525,44.235243],[7.188341,44.200764],[7.219398,44.168469],[7.240899,44.17336],[7.280318,44.141184],[7.3442,44.14516],[7.358003,44.11602],[7.392887,44.125029],[7.42525,44.112008],[7.430391,44.130221],[7.564212,44.155513],[7.620052,44.149515],[7.63662,44.177107],[7.683262,44.175209],[7.666595,44.130757],[7.718811,44.082527],[7.714448,44.061222],[7.662695,44.02892],[7.670435,43.998254],[7.652839,43.973957],[7.56912,43.947348],[7.561097,43.898703],[7.497883,43.871645],[7.530054,43.786705],[7.490552,43.767539],[7.487815,43.749535],[7.46093,43.760359],[7.406308,43.718667],[7.355891,43.720954],[7.329399,43.702238],[7.350076,43.686515],[7.332341,43.675056],[7.314418,43.706684],[7.304039,43.685051],[7.241449,43.688456],[7.212452,43.647639],[7.156916,43.653488],[7.126523,43.605861],[7.138503,43.545621],[7.119516,43.542232],[7.121754,43.559493],[7.096203,43.570985],[7.038231,43.534683],[7.016567,43.550778],[6.963334,43.542152],[6.937481,43.514492],[6.95706,43.50008],[6.92406,43.473518],[6.923969,43.450495],[6.890656,43.428133],[6.859738,43.433253],[6.856232,43.411211],[6.745426,43.417846],[6.714092,43.372197],[6.716058,43.346746],[6.68093,43.340808],[6.671305,43.312649],[6.583874,43.277308],[6.593421,43.262218],[6.640172,43.274358],[6.664252,43.264608],[6.677683,43.278869],[6.69763,43.266471],[6.664494,43.241345],[6.66387,43.21297],[6.681157,43.199818],[6.642514,43.186573],[6.646437,43.167402],[6.620881,43.157835],[6.601798,43.182089],[6.561452,43.189056],[6.493557,43.150221],[6.385207,43.144306],[6.359828,43.119947],[6.364415,43.086347],[6.321589,43.091438],[6.275005,43.120784],[6.201626,43.116087],[6.154814,43.079888],[6.152537,43.036078],[6.173001,43.032405],[6.155254,43.026572],[6.095395,43.028816],[6.093781,43.040358],[6.131672,43.048052],[6.113993,43.083655],[6.021534,43.078257],[6.023746,43.094397],[6.006255,43.103982],[5.925444,43.102409],[5.934392,43.118514],[5.920878,43.123902],[5.885618,43.117143],[5.882164,43.101348],[5.910525,43.100721],[5.894771,43.081712],[5.937902,43.084571],[5.947031,43.067743],[5.8902,43.078033],[5.859244,43.045673],[5.829823,43.048974],[5.792309,43.068473],[5.812224,43.094249],[5.80886,43.114763],[5.766717,43.115337],[5.780957,43.130123],[5.771254,43.138932],[5.751174,43.129771],[5.694875,43.14359],[5.686735,43.17968],[5.623169,43.18678],[5.605472,43.16018],[5.569287,43.174872],[5.537569,43.212493],[5.500289,43.196791],[5.454649,43.211892],[5.443545,43.212735],[5.455164,43.202778],[5.4515,43.200941],[5.337236,43.213285],[5.376082,43.25583],[5.345458,43.281608],[5.360703,43.309075],[5.309244,43.359064],[5.229373,43.328736],[5.052378,43.324311],[5.018816,43.342182],[5.025693,43.35512],[4.973824,43.402141],[4.969997,43.424875],[4.930081,43.433143],[4.828659,43.375763],[4.884194,43.355161],[4.916565,43.383152],[4.915046,43.375133],[4.854229,43.332463],[4.764945,43.349735],[4.659637,43.345314],[4.562798,43.372135],[4.558794,43.385855],[4.596265,43.405511],[4.564306,43.442703],[4.501997,43.455748],[4.396824,43.448188]]],[[[6.198362,42.982566],[6.160947,43.001151],[6.210668,43.002187],[6.242862,43.026255],[6.250047,42.998838],[6.198362,42.982566]]],[[[6.370084,43.001208],[6.383336,43.013841],[6.420727,43.013706],[6.402654,42.993499],[6.370084,43.001208]]],[[[6.437795,43.023758],[6.511235,43.046559],[6.433766,43.006921],[6.437795,43.023758]]]]}},{"type":"Feature","properties":{"CdBH":"E","LbBH":"CORSE"},"geometry":{"type":"MultiPolygon","coordinates":[[[[9.342545,42.795254],[9.309427,42.833298],[9.340352,42.866204],[9.322107,42.900181],[9.361455,42.924623],[9.348894,42.92931],[9.359082,42.945631],[9.340109,42.994145],[9.427118,43.010133],[9.463565,42.986446],[9.451585,42.9618],[9.469355,42.936414],[9.492843,42.806422],[9.465735,42.757918],[9.447326,42.667911],[9.533941,42.541838],[9.543533,42.429211],[9.532351,42.371182],[9.559987,42.282075],[9.555751,42.13253],[9.549915,42.104126],[9.413545,41.955257],[9.394034,41.798003],[9.406495,41.713432],[9.37223,41.678745],[9.388004,41.67045],[9.385898,41.645376],[9.348169,41.637369],[9.354485,41.616557],[9.307365,41.628222],[9.280934,41.597188],[9.295423,41.583789],[9.317996,41.604847],[9.369361,41.594134],[9.343198,41.559164],[9.273079,41.530237],[9.284539,41.517384],[9.268339,41.500438],[9.287905,41.494634],[9.266822,41.470317],[9.277942,41.464221],[9.223835,41.442497],[9.226768,41.417207],[9.209844,41.413266],[9.22288,41.404484],[9.265162,41.428279],[9.259803,41.413702],[9.219988,41.366359],[9.18065,41.365767],[9.148909,41.385247],[9.161466,41.388826],[9.156789,41.392228],[9.09347,41.393999],[9.122375,41.441584],[9.06921,41.445159],[9.079988,41.477394],[9.040118,41.456826],[8.995558,41.485466],[8.982684,41.473707],[8.960802,41.492603],[8.919969,41.489115],[8.914801,41.50716],[8.883912,41.504658],[8.890297,41.516658],[8.876783,41.524254],[8.84251,41.518055],[8.853566,41.546999],[8.786884,41.556225],[8.782469,41.566684],[8.804027,41.575429],[8.774097,41.592262],[8.789586,41.596751],[8.790671,41.628965],[8.872006,41.646934],[8.913498,41.691003],[8.811821,41.714221],[8.782949,41.699163],[8.775039,41.741412],[8.712144,41.721843],[8.704554,41.739378],[8.658717,41.74031],[8.730088,41.775912],[8.710837,41.801054],[8.771296,41.811239],[8.784531,41.831167],[8.750854,41.845033],[8.788434,41.850677],[8.778411,41.882845],[8.803269,41.893813],[8.782024,41.923371],[8.750519,41.933446],[8.718757,41.90796],[8.641482,41.90991],[8.606664,41.895127],[8.623399,41.934884],[8.592021,41.964364],[8.657962,41.973643],[8.669635,41.987534],[8.656,42.009321],[8.746987,42.050211],[8.718865,42.063841],[8.699986,42.112516],[8.659197,42.101007],[8.612622,42.134495],[8.580461,42.12876],[8.594082,42.143223],[8.585452,42.151775],[8.557844,42.146007],[8.593611,42.167938],[8.561198,42.171559],[8.586297,42.180572],[8.581274,42.206028],[8.577255,42.207742],[8.57114,42.204241],[8.57054,42.205536],[8.56746,42.204485],[8.566355,42.205577],[8.572565,42.229116],[8.539919,42.237478],[8.692936,42.268413],[8.660414,42.302353],[8.604546,42.305601],[8.597824,42.318787],[8.628212,42.332058],[8.616731,42.348717],[8.591958,42.35295],[8.553071,42.333081],[8.557855,42.360131],[8.543117,42.368012],[8.608779,42.386339],[8.605542,42.416261],[8.656882,42.416793],[8.663945,42.434322],[8.648238,42.442411],[8.668776,42.444842],[8.679721,42.470011],[8.649509,42.477049],[8.667466,42.51619],[8.720052,42.525206],[8.710173,42.535503],[8.722827,42.556733],[8.706226,42.569568],[8.724388,42.584179],[8.727044,42.561604],[8.754926,42.571607],[8.78068,42.55645],[8.805879,42.572918],[8.805882,42.603967],[8.866821,42.608211],[8.879012,42.629095],[8.93072,42.6453],[8.946383,42.633656],[9.016079,42.641742],[9.059581,42.66071],[9.057357,42.696553],[9.123742,42.731502],[9.222239,42.735475],[9.296466,42.675566],[9.345264,42.736654],[9.342545,42.795254]]]]}},{"type":"Feature","properties":{"CdBH":"F","LbBH":"ADOUR GARONNE"},"geometry":{"type":"MultiPolygon","coordinates":[[[[-1.105668,43.011387],[-1.126459,42.998153],[-1.215103,43.047645],[-1.333013,43.018465],[-1.366363,43.031135],[-1.388797,43.019485],[-1.411785,43.034792],[-1.447705,43.018927],[-1.497781,43.050515],[-1.466195,43.073715],[-1.472472,43.090251],[-1.415559,43.126987],[-1.384494,43.199617],[-1.44532,43.199817],[-1.475943,43.240901],[-1.563477,43.172744],[-1.678871,43.227711],[-1.689542,43.194977],[-1.752525,43.155249],[-1.764177,43.226863],[-1.788101,43.244],[-1.786433,43.290632],[-1.8388,43.302832],[-1.856886,43.344499],[-1.791943,43.393934],[-1.797168,43.37718],[-1.783054,43.362414],[-1.796424,43.349447],[-1.769886,43.36488],[-1.789197,43.374455],[-1.682375,43.396636],[-1.682734,43.389783],[-1.663425,43.385511],[-1.662184,43.403109],[-1.597112,43.431859],[-1.445605,43.655155],[-1.435405,43.648959],[-1.427277,43.655405],[-1.439355,43.654622],[-1.427378,43.663813],[-1.429155,43.683135],[-1.446346,43.656071],[-1.420014,43.772194],[-1.327243,44.088509],[-1.314762,44.085747],[-1.327,44.091713],[-1.299293,44.210761],[-1.279928,44.205772],[-1.29808,44.216427],[-1.254934,44.457111],[-1.259742,44.545071],[-1.2133,44.597767],[-1.191358,44.660867],[-1.14395,44.660594],[-1.154935,44.644771],[-1.143942,44.638036],[-1.003681,44.648351],[-1.019499,44.678971],[-1.069285,44.696194],[-1.036057,44.693466],[-1.055909,44.709562],[-1.167506,44.776084],[-1.173651,44.745719],[-1.232577,44.69329],[-1.244524,44.623101],[-1.261969,44.631931],[-1.16196,45.299468],[-1.15671,45.474294],[-1.09163,45.562038],[-1.060859,45.573423],[-1.064097,45.555224],[-1.042853,45.544253],[-1.037972,45.533595],[-1.062289,45.536279],[-1.050721,45.526275],[-1.06938,45.527644],[-1.065498,45.510384],[-0.931707,45.439644],[-0.904239,45.407401],[-0.810243,45.351941],[-0.764752,45.282031],[-0.739986,45.184104],[-0.694301,45.100172],[-0.633645,45.062521],[-0.66799,45.128632],[-0.724328,45.359721],[-0.773069,45.448994],[-0.917079,45.550776],[-0.970296,45.56092],[-1.02205,45.622501],[-1.04258,45.617245],[-1.204417,45.695454],[-1.231496,45.692885],[-1.203462,45.6736],[-1.222091,45.67265],[-1.235935,45.692968],[-1.241676,45.786223],[-1.139256,45.799121],[-1.151189,45.847156],[-1.169763,45.855015],[-1.078766,45.871939],[-1.099242,45.88086],[-1.075628,45.907515],[-1.076195,45.934264],[-1.100749,45.945023],[-1.076993,45.959479],[-1.121876,46.003634],[-1.057355,45.99785],[-1.061662,46.045359],[-1.0894,46.056918],[-1.003158,46.099956],[-0.932209,46.073879],[-0.858339,46.098126],[-0.813723,46.093345],[-0.76691,46.121573],[-0.677316,46.129455],[-0.645208,46.08547],[-0.556372,46.100683],[-0.510719,46.084396],[-0.484093,46.103214],[-0.452917,46.0898],[-0.370854,46.119723],[-0.38828,46.177099],[-0.310503,46.220987],[-0.255603,46.228316],[-0.244131,46.272039],[-0.208438,46.29383],[-0.108026,46.280666],[-0.051798,46.192097],[-0.025845,46.182389],[-0.030774,46.157128],[0.036832,46.133564],[0.122135,46.137472],[0.146725,46.190011],[0.19421,46.207796],[0.19248,46.229077],[0.253824,46.243605],[0.39128,46.161903],[0.42783,46.167428],[0.430218,46.141353],[0.456291,46.131224],[0.467509,46.105258],[0.498266,46.105169],[0.560424,46.070409],[0.603931,45.987564],[0.61686,45.879242],[0.64626,45.850891],[0.70439,45.837001],[0.743757,45.808221],[0.78686,45.747176],[0.932763,45.713474],[0.989811,45.664945],[1.039365,45.655371],[1.040866,45.636332],[1.075659,45.656685],[1.087549,45.657412],[1.081249,45.638285],[1.133485,45.636816],[1.173551,45.658176],[1.218184,45.658338],[1.238597,45.618427],[1.317738,45.572452],[1.350758,45.585666],[1.380825,45.575643],[1.428373,45.607511],[1.523866,45.557497],[1.56744,45.587341],[1.617287,45.581105],[1.722261,45.635837],[1.785904,45.618445],[1.816174,45.633736],[1.854811,45.61314],[1.897831,45.647073],[1.928533,45.622008],[1.960535,45.631387],[1.972587,45.670355],[2.003961,45.658602],[2.075421,45.668663],[2.084737,45.654937],[2.118254,45.688071],[2.110262,45.721055],[2.127456,45.732505],[2.179429,45.725169],[2.213811,45.756079],[2.298018,45.740648],[2.320221,45.779241],[2.372073,45.813874],[2.376016,45.842995],[2.431329,45.841398],[2.446673,45.828177],[2.447862,45.779926],[2.518575,45.750775],[2.541331,45.715252],[2.659694,45.707013],[2.685704,45.724083],[2.701186,45.681947],[2.690678,45.662733],[2.725026,45.619313],[2.853168,45.616116],[2.857266,45.598098],[2.819489,45.526491],[2.853828,45.495064],[2.887203,45.487401],[2.883264,45.422709],[2.944152,45.398347],[2.920649,45.366194],[2.95015,45.321415],[2.876631,45.306165],[2.840245,45.26518],[2.867521,45.248444],[2.843319,45.21892],[2.861922,45.204733],[2.868555,45.18648],[2.850493,45.181896],[2.864578,45.172064],[2.717281,45.087757],[2.768808,45.071255],[2.761043,45.056882],[2.779941,45.046048],[2.822456,45.0493],[2.891378,45.091768],[3.070921,45.138752],[3.092783,45.115026],[3.117582,45.118899],[3.17968,45.089307],[3.209149,45.052634],[3.323865,45.011014],[3.367225,44.916997],[3.411142,44.908488],[3.434963,44.88188],[3.434843,44.852369],[3.49756,44.799572],[3.508242,44.763338],[3.563111,44.733362],[3.563788,44.69874],[3.545391,44.692449],[3.538462,44.659383],[3.604193,44.652301],[3.610921,44.614499],[3.643403,44.604971],[3.659285,44.578921],[3.738772,44.536856],[3.775006,44.533892],[3.786243,44.515287],[3.77203,44.492557],[3.737452,44.47585],[3.758509,44.418261],[3.777443,44.425762],[3.79344,44.40794],[3.8276,44.415106],[3.874035,44.393972],[3.816647,44.326847],[3.815249,44.301091],[3.784187,44.277699],[3.801715,44.266579],[3.766539,44.256447],[3.764861,44.240847],[3.730324,44.247224],[3.685856,44.226608],[3.651308,44.247878],[3.614262,44.239787],[3.622747,44.224072],[3.60552,44.21332],[3.603481,44.175182],[3.653833,44.146002],[3.625011,44.117829],[3.542081,44.117243],[3.538089,44.096284],[3.591682,44.06751],[3.539153,44.050364],[3.525731,44.028589],[3.416608,44.015385],[3.369651,43.980982],[3.349505,43.989915],[3.336487,43.974596],[3.346749,43.946188],[3.312709,43.904166],[3.242542,43.879434],[3.237313,43.864178],[3.208699,43.872178],[3.064371,43.835647],[3.064189,43.80929],[3.048356,43.801375],[3.060358,43.785187],[3.023003,43.74564],[3.036395,43.72137],[3.008986,43.701716],[2.983795,43.708957],[2.922589,43.686209],[2.950061,43.633272],[2.929321,43.631143],[2.908235,43.603182],[2.854861,43.603672],[2.789746,43.580173],[2.778027,43.538949],[2.671181,43.515403],[2.657453,43.488775],[2.721433,43.438202],[2.599793,43.430298],[2.587306,43.411941],[2.469926,43.437389],[2.452229,43.389311],[2.426398,43.385846],[2.380466,43.42216],[2.255217,43.472165],[2.142321,43.393327],[2.018558,43.415879],[1.967803,43.403739],[1.882787,43.444776],[1.871496,43.401037],[1.829923,43.380362],[1.832091,43.353741],[1.79768,43.340339],[1.982679,43.217071],[1.983455,43.197881],[2.048843,43.166621],[2.003264,43.147065],[1.998058,43.112056],[2.09512,43.020897],[2.074139,42.929914],[2.116547,42.89605],[2.109522,42.874545],[2.088954,42.872918],[2.096487,42.865103],[2.072524,42.871012],[2.06741,42.850367],[2.035579,42.861737],[2.014439,42.893582],[1.950325,42.894545],[1.973928,42.873223],[1.901805,42.834971],[1.920922,42.828582],[1.923188,42.800076],[1.945116,42.783233],[1.906946,42.767194],[1.949107,42.736864],[1.992185,42.734394],[1.966888,42.700088],[1.982798,42.671645],[2.006888,42.671419],[2.002169,42.66123],[1.972178,42.617232],[1.933042,42.604568],[1.909734,42.621571],[1.8892,42.591418],[1.791481,42.558548],[1.778905,42.542576],[1.788512,42.531303],[1.74192,42.514907],[1.721811,42.519118],[1.717098,42.5582],[1.695487,42.574066],[1.725832,42.585441],[1.736148,42.618526],[1.602286,42.626144],[1.563924,42.652653],[1.494089,42.653947],[1.477838,42.651212],[1.469316,42.607486],[1.439301,42.603499],[1.413808,42.655007],[1.387701,42.669436],[1.388106,42.688122],[1.352106,42.702246],[1.356374,42.71957],[1.254203,42.714929],[1.229443,42.727315],[1.166518,42.708933],[1.07862,42.788252],[0.983342,42.787233],[0.961179,42.805449],[0.933695,42.790377],[0.924372,42.752048],[0.942044,42.710353],[1.017904,42.705525],[0.981764,42.66223],[0.986366,42.611448],[0.939325,42.589826],[0.879748,42.632819],[0.829017,42.606577],[0.77247,42.653867],[0.700608,42.628515],[0.670461,42.681046],[0.598751,42.705081],[0.426737,42.690066],[0.360624,42.724201],[0.294753,42.67418],[0.264652,42.693331],[0.259264,42.716474],[0.177864,42.736309],[-0.016307,42.685208],[-0.060513,42.694265],[-0.068777,42.718121],[-0.106551,42.720783],[-0.160823,42.798502],[-0.188175,42.78691],[-0.313356,42.849416],[-0.394844,42.799314],[-0.408296,42.80852],[-0.442012,42.795393],[-0.504755,42.827322],[-0.52657,42.794146],[-0.573965,42.765507],[-0.571735,42.792261],[-0.600721,42.806602],[-0.601481,42.831511],[-0.677037,42.88336],[-0.723563,42.889866],[-0.733629,42.912164],[-0.717692,42.924728],[-0.751532,42.967543],[-0.813517,42.951329],[-0.910065,42.964086],[-0.942742,42.953483],[-1.006124,42.988304],[-1.048572,42.97088],[-1.105668,43.011387]]]]}},{"type":"Feature","properties":{"CdBH":"G","LbBH":"LOIRE BRETAGNE"},"geometry":{"type":"MultiPolygon","coordinates":[[[[-1.444404,46.21417],[-1.35466,46.20611],[-1.255367,46.161978],[-1.27911,46.143749],[-1.312855,46.143609],[-1.461805,46.202202],[-1.505259,46.193843],[-1.534476,46.20253],[-1.562977,46.244565],[-1.500257,46.258238],[-1.474493,46.233392],[-1.515239,46.23483],[-1.497251,46.203681],[-1.459164,46.228548],[-1.411404,46.22951],[-1.444404,46.21417]]],[[[-2.383829,46.699333],[-2.40026,46.726098],[-2.374187,46.733711],[-2.318051,46.719654],[-2.282166,46.690785],[-2.383829,46.699333]]],[[[-2.223754,46.965383],[-2.264085,46.960573],[-2.302083,46.989819],[-2.292329,47.011887],[-2.307674,47.024786],[-2.222263,47.01451],[-2.219899,46.990543],[-2.241421,46.998923],[-2.246934,46.994062],[-2.230943,46.973298],[-2.156677,46.949512],[-2.148513,46.893467],[-2.223754,46.965383]]],[[[-3.064054,47.306261],[-3.093326,47.278017],[-3.168106,47.301661],[-3.222421,47.29369],[-3.248568,47.313666],[-3.23582,47.326185],[-3.263576,47.351805],[-3.262773,47.371323],[-3.246467,47.371526],[-3.244969,47.38765],[-3.217448,47.37838],[-3.22198,47.368379],[-3.218264,47.363283],[-3.214438,47.373701],[-3.157555,47.364652],[-3.14777,47.332746],[-3.064054,47.306261]]],[[[-3.415616,47.631307],[-3.463032,47.620199],[-3.514435,47.652071],[-3.436125,47.644447],[-3.415616,47.631307]]],[[[-1.767721,48.602526],[-1.543081,48.631366],[-1.513083,48.617531],[-1.454353,48.625761],[-1.428506,48.554835],[-1.375241,48.549082],[-1.308109,48.505903],[-1.306633,48.486113],[-1.226851,48.422375],[-1.198751,48.426928],[-1.207531,48.44253],[-1.172971,48.465664],[-1.143822,48.451219],[-1.107139,48.383042],[-1.047008,48.379417],[-1.021487,48.359133],[-0.963749,48.377124],[-0.922747,48.417065],[-0.940032,48.447692],[-0.914765,48.46544],[-0.951521,48.522577],[-0.833667,48.533415],[-0.769862,48.56252],[-0.782314,48.621577],[-0.86066,48.654206],[-0.825412,48.675896],[-0.861769,48.734996],[-0.83469,48.753443],[-0.771451,48.719888],[-0.71288,48.718187],[-0.699629,48.730814],[-0.6052,48.696258],[-0.491312,48.742999],[-0.455725,48.723289],[-0.457024,48.698408],[-0.488494,48.684667],[-0.493711,48.661458],[-0.288231,48.601664],[-0.238536,48.617955],[-0.245022,48.608712],[-0.220086,48.598028],[-0.237029,48.569078],[-0.130747,48.543122],[-0.078238,48.566641],[0.042167,48.547101],[0.101148,48.576243],[0.165969,48.579158],[0.170248,48.566224],[0.204328,48.593272],[0.301813,48.607801],[0.349658,48.66269],[0.438579,48.67124],[0.52116,48.654074],[0.538554,48.641203],[0.528023,48.621783],[0.586129,48.598422],[0.679754,48.613688],[0.78684,48.594827],[0.828481,48.610208],[0.839484,48.603345],[0.832274,48.58073],[0.788177,48.560777],[0.803777,48.533287],[0.860441,48.511053],[0.863529,48.496121],[0.929479,48.496618],[0.973025,48.468717],[0.947648,48.419938],[0.995549,48.423505],[1.049661,48.400675],[1.018083,48.377937],[1.222815,48.414988],[1.250111,48.375822],[1.389199,48.369463],[1.554211,48.312194],[1.592331,48.342481],[1.590482,48.37766],[1.608953,48.388681],[1.630298,48.383408],[1.628734,48.371332],[1.735792,48.347129],[1.861087,48.372771],[1.887357,48.362712],[1.926233,48.312953],[1.918848,48.299764],[1.936536,48.274012],[1.92624,48.249376],[1.9751,48.248575],[1.992547,48.226036],[2.037034,48.217703],[2.072691,48.185978],[2.053812,48.173341],[2.049545,48.141844],[2.102868,48.13116],[2.079018,48.09737],[2.017981,48.081908],[2.00965,48.067938],[2.023768,48.048937],[2.091177,48.017652],[2.255956,48.045709],[2.322471,47.986407],[2.340303,47.931731],[2.402277,47.894544],[2.444117,47.836043],[2.489539,47.842834],[2.554704,47.807905],[2.596601,47.806613],[2.604925,47.765438],[2.708254,47.727015],[2.710355,47.712164],[2.794141,47.735565],[2.970536,47.663427],[2.995046,47.665473],[3.055308,47.628979],[3.063181,47.578568],[3.096829,47.558111],[3.157558,47.561683],[3.185371,47.58317],[3.214998,47.577669],[3.232417,47.546664],[3.255545,47.553316],[3.307002,47.532671],[3.36349,47.486853],[3.343797,47.455782],[3.300006,47.436982],[3.268232,47.357001],[3.307524,47.36017],[3.330186,47.317432],[3.366243,47.321502],[3.389941,47.269314],[3.416519,47.26881],[3.393804,47.233217],[3.457248,47.204572],[3.475878,47.178441],[3.498858,47.200301],[3.599384,47.215582],[3.624869,47.200205],[3.646889,47.152552],[3.767236,47.165462],[3.791841,47.125719],[3.8552,47.127324],[3.919993,47.100828],[3.936294,47.059884],[3.921618,47.052119],[3.949221,47.028266],[3.949462,46.995041],[3.98221,46.983826],[3.976722,46.969198],[4.005394,46.951912],[4.042145,46.988629],[4.038366,47.074993],[4.059646,47.076071],[4.069909,47.101809],[4.100142,47.104791],[4.124402,47.13132],[4.132339,47.194651],[4.182545,47.280483],[4.217166,47.272762],[4.232856,47.247498],[4.219466,47.236336],[4.26906,47.215449],[4.371562,47.228008],[4.429232,47.209524],[4.442296,47.230455],[4.477761,47.239341],[4.543855,47.213327],[4.570457,47.194042],[4.582503,47.100653],[4.660973,47.058013],[4.637118,46.977714],[4.580401,46.955427],[4.592922,46.933567],[4.532717,46.88197],[4.522371,46.83544],[4.496344,46.816425],[4.499802,46.797591],[4.464893,46.752906],[4.536147,46.735934],[4.51327,46.722966],[4.522087,46.691363],[4.509895,46.677701],[4.534324,46.657614],[4.479453,46.631935],[4.48479,46.614855],[4.459154,46.575633],[4.479968,46.551145],[4.466897,46.547057],[4.474504,46.524442],[4.461665,46.508678],[4.485037,46.495869],[4.459394,46.477789],[4.477678,46.463496],[4.484186,46.423215],[4.427584,46.326019],[4.473506,46.281752],[4.463667,46.25491],[4.492133,46.239812],[4.488872,46.199991],[4.417257,46.137996],[4.444405,46.066221],[4.415382,45.982627],[4.384895,45.961246],[4.377643,45.917442],[4.317595,45.906324],[4.445426,45.792441],[4.450334,45.734279],[4.365478,45.671243],[4.366362,45.653153],[4.537732,45.686554],[4.559315,45.706459],[4.579749,45.683856],[4.566459,45.677346],[4.567215,45.650264],[4.603516,45.625541],[4.563235,45.58095],[4.496803,45.565823],[4.487386,45.520371],[4.448718,45.510867],[4.456792,45.468406],[4.421117,45.432741],[4.530224,45.358194],[4.473926,45.311767],[4.481472,45.296581],[4.457087,45.255676],[4.490538,45.2253],[4.471477,45.176988],[4.433,45.137341],[4.404181,45.133051],[4.408718,45.101765],[4.382413,45.086219],[4.395105,45.071051],[4.370807,45.039382],[4.382,45.032899],[4.241455,44.974021],[4.203077,44.937426],[4.179285,44.88188],[4.246511,44.815887],[4.22989,44.772962],[4.198519,44.761974],[4.205122,44.751257],[4.153596,44.749369],[4.114331,44.709109],[4.024233,44.701314],[4.02201,44.665032],[4.050708,44.635508],[3.95981,44.618418],[3.947814,44.595378],[3.908449,44.58832],[3.907681,44.560225],[3.889389,44.552055],[3.865952,44.56367],[3.839664,44.552579],[3.76286,44.600316],[3.74706,44.597624],[3.722967,44.555002],[3.699827,44.552693],[3.643403,44.604971],[3.610921,44.614499],[3.605063,44.651759],[3.538462,44.659383],[3.545391,44.692449],[3.563788,44.69874],[3.563111,44.733362],[3.508242,44.763338],[3.49756,44.799572],[3.434843,44.852369],[3.434963,44.88188],[3.411142,44.908488],[3.367225,44.916997],[3.323865,45.011014],[3.209149,45.052634],[3.170523,45.094953],[3.092783,45.115026],[3.070921,45.138752],[2.891378,45.091768],[2.822456,45.0493],[2.779941,45.046048],[2.761043,45.056882],[2.768808,45.071255],[2.717281,45.087757],[2.864578,45.172064],[2.850493,45.181896],[2.868555,45.18648],[2.861922,45.204733],[2.843319,45.21892],[2.867521,45.248444],[2.840245,45.26518],[2.876631,45.306165],[2.95015,45.321415],[2.920649,45.366194],[2.944152,45.398347],[2.883264,45.422709],[2.887203,45.487401],[2.853828,45.495064],[2.819489,45.526491],[2.857266,45.598098],[2.853168,45.616116],[2.725026,45.619313],[2.690678,45.662733],[2.701186,45.681947],[2.685704,45.724083],[2.659694,45.707013],[2.541331,45.715252],[2.518575,45.750775],[2.447862,45.779926],[2.446673,45.828177],[2.431329,45.841398],[2.376016,45.842995],[2.372073,45.813874],[2.320221,45.779241],[2.298018,45.740648],[2.213811,45.756079],[2.179429,45.725169],[2.127456,45.732505],[2.110262,45.721055],[2.118254,45.688071],[2.084737,45.654937],[2.075421,45.668663],[2.003961,45.658602],[1.972587,45.670355],[1.960535,45.631387],[1.928533,45.622008],[1.897831,45.647073],[1.854811,45.61314],[1.816174,45.633736],[1.785904,45.618445],[1.722261,45.635837],[1.617287,45.581105],[1.56744,45.587341],[1.522403,45.557359],[1.428602,45.607491],[1.369261,45.572057],[1.350758,45.585666],[1.288559,45.579083],[1.238597,45.618427],[1.2158,45.658967],[1.173551,45.658176],[1.133485,45.636816],[1.081249,45.638285],[1.087549,45.657412],[1.075659,45.656685],[1.040866,45.636332],[1.039365,45.655371],[0.989811,45.664945],[0.932763,45.713474],[0.78686,45.747176],[0.743757,45.808221],[0.70439,45.837001],[0.64626,45.850891],[0.61686,45.879242],[0.603931,45.987564],[0.560424,46.070409],[0.498266,46.105169],[0.467509,46.105258],[0.456291,46.131224],[0.430218,46.141353],[0.42783,46.167428],[0.392042,46.161582],[0.35896,46.191374],[0.236903,46.247091],[0.191264,46.228001],[0.181867,46.196672],[0.146725,46.190011],[0.122135,46.137472],[0.036832,46.133564],[-0.030774,46.157128],[-0.025845,46.182389],[-0.051798,46.192097],[-0.108026,46.280666],[-0.208438,46.29383],[-0.244131,46.272039],[-0.255603,46.228316],[-0.310503,46.220987],[-0.38828,46.177099],[-0.370854,46.119723],[-0.452917,46.0898],[-0.484093,46.103214],[-0.510719,46.084396],[-0.556372,46.100683],[-0.645208,46.08547],[-0.677316,46.129455],[-0.76691,46.121573],[-0.813723,46.093345],[-0.858339,46.098126],[-0.932209,46.073879],[-1.003158,46.099956],[-1.0894,46.056918],[-1.100732,46.09393],[-1.143141,46.106365],[-1.124489,46.111351],[-1.128166,46.126458],[-1.174198,46.138321],[-1.150576,46.15792],[-1.20597,46.145795],[-1.228963,46.149665],[-1.232308,46.152261],[-1.220422,46.152816],[-1.225187,46.165274],[-1.24211,46.15749],[-1.193471,46.198962],[-1.18907,46.209141],[-1.206719,46.203231],[-1.200055,46.21249],[-1.111239,46.261439],[-1.126965,46.307645],[-1.164066,46.332684],[-1.167377,46.319687],[-1.203129,46.315784],[-1.205315,46.266497],[-1.276696,46.307924],[-1.298635,46.309515],[-1.2815,46.300206],[-1.29088,46.289749],[-1.272422,46.291482],[-1.283025,46.286174],[-1.296847,46.291428],[-1.30066,46.294312],[-1.327519,46.327324],[-1.360684,46.341829],[-1.467857,46.342832],[-1.514589,46.403994],[-1.647947,46.420156],[-1.647581,46.432916],[-1.622247,46.427676],[-1.609652,46.43356],[-1.636792,46.431492],[-1.639247,46.444559],[-1.651993,46.428257],[-1.777811,46.49305],[-1.809616,46.491849],[-1.8571,46.609938],[-1.942036,46.692017],[-1.965687,46.691398],[-1.997702,46.732175],[-2.141468,46.818273],[-2.154792,46.889932],[-2.112221,46.894928],[-2.1172,46.909016],[-2.039943,46.968715],[-2.029394,47.009798],[-1.980071,47.027926],[-2.00458,47.061331],[-2.052356,47.094115],[-2.108522,47.10795],[-2.098825,47.115172],[-2.247204,47.132289],[-2.225016,47.153176],[-2.167013,47.166362],[-2.158308,47.209053],[-2.181151,47.232173],[-2.169383,47.248717],[-2.178176,47.296691],[-2.222353,47.258485],[-2.298374,47.233062],[-2.375095,47.278707],[-2.416283,47.278009],[-2.416685,47.258706],[-2.430606,47.258222],[-2.547241,47.292369],[-2.520503,47.301338],[-2.477127,47.285311],[-2.469691,47.295399],[-2.49244,47.305264],[-2.469473,47.309918],[-2.48266,47.317299],[-2.511694,47.300628],[-2.508492,47.344202],[-2.55838,47.375627],[-2.46807,47.421006],[-2.431808,47.415657],[-2.458703,47.423152],[-2.445616,47.435634],[-2.457418,47.447987],[-2.495233,47.449659],[-2.501077,47.492808],[-2.405958,47.489216],[-2.385962,47.503594],[-2.43963,47.498511],[-2.534356,47.528092],[-2.54985,47.510632],[-2.660081,47.509429],[-2.675109,47.491809],[-2.724836,47.506411],[-2.815851,47.48676],[-2.85011,47.498527],[-2.847482,47.519332],[-2.903732,47.534471],[-2.890567,47.544756],[-2.912754,47.542266],[-2.914602,47.557597],[-2.878384,47.563739],[-2.853758,47.536585],[-2.827044,47.550036],[-2.83054,47.545599],[-2.82719,47.536464],[-2.823594,47.536443],[-2.822823,47.556624],[-2.805653,47.555314],[-2.799562,47.53706],[-2.787739,47.5525],[-2.767891,47.535755],[-2.734838,47.540856],[-2.718495,47.588077],[-2.710051,47.575601],[-2.682185,47.604208],[-2.68662,47.63137],[-2.70264,47.631577],[-2.690661,47.638135],[-2.712395,47.648638],[-2.702665,47.62342],[-2.717256,47.619856],[-2.700073,47.618575],[-2.69548,47.610212],[-2.717838,47.61546],[-2.70272,47.602237],[-2.720309,47.58962],[-2.721471,47.603224],[-2.780771,47.621175],[-2.835522,47.61253],[-2.87519,47.624863],[-2.858822,47.601349],[-2.888893,47.603559],[-2.889427,47.574465],[-2.913331,47.591909],[-2.93794,47.566049],[-2.928844,47.554834],[-2.957376,47.565208],[-2.962923,47.553371],[-2.992667,47.581081],[-2.98401,47.586436],[-2.982526,47.58957],[-2.999518,47.590908],[-2.987527,47.566352],[-3.007222,47.568151],[-3.036367,47.639648],[-3.036068,47.630782],[-3.047422,47.631608],[-3.047794,47.627399],[-3.027033,47.615288],[-3.018185,47.566564],[-3.043894,47.587506],[-3.053349,47.569172],[-3.095864,47.563492],[-3.106655,47.575203],[-3.091901,47.579455],[-3.130758,47.595798],[-3.129507,47.574578],[-3.115318,47.575878],[-3.133537,47.546439],[-3.126585,47.513136],[-3.079297,47.468924],[-3.130927,47.473169],[-3.162221,47.529573],[-3.134465,47.546395],[-3.158446,47.607023],[-3.279178,47.682666],[-3.322995,47.694244],[-3.357743,47.686237],[-3.36197,47.690763],[-3.325723,47.702139],[-3.285285,47.686113],[-3.282006,47.686046],[-3.277628,47.69009],[-3.317705,47.704603],[-3.301902,47.71051],[-3.452828,47.695381],[-3.529417,47.766351],[-3.645419,47.7742],[-3.638051,47.793068],[-3.677763,47.775644],[-3.720651,47.80251],[-3.856045,47.789612],[-3.853901,47.803304],[-3.902586,47.835709],[-3.886319,47.848893],[-3.919441,47.855826],[-3.898747,47.859371],[-3.905924,47.877276],[-3.930595,47.870744],[-3.946019,47.904557],[-3.973223,47.894743],[-3.97749,47.90967],[-3.992378,47.896186],[-3.973359,47.890814],[-3.990167,47.882766],[-3.977235,47.853745],[-4.040323,47.844445],[-4.122508,47.864866],[-4.163983,47.848843],[-4.165053,47.814537],[-4.192758,47.795884],[-4.210067,47.799379],[-4.216202,47.813203],[-4.221036,47.814916],[-4.218871,47.792069],[-4.374112,47.797931],[-4.380629,47.820211],[-4.346069,47.839395],[-4.361254,47.882479],[-4.339373,47.899349],[-4.363552,47.887356],[-4.422468,47.962258],[-4.534577,48.009786],[-4.533619,48.021819],[-4.566205,47.99966],[-4.633019,48.029321],[-4.741196,48.040018],[-4.707325,48.044456],[-4.714029,48.064819],[-4.552533,48.076023],[-4.53651,48.089964],[-4.486216,48.086544],[-4.41614,48.106765],[-4.36221,48.109187],[-4.330085,48.07957],[-4.328209,48.100344],[-4.2965,48.092489],[-4.28571,48.126038],[-4.268021,48.130601],[-4.316263,48.203854],[-4.488961,48.236212],[-4.554057,48.167735],[-4.55233,48.209538],[-4.573482,48.235778],[-4.543466,48.249294],[-4.623053,48.252843],[-4.615409,48.273858],[-4.631543,48.279455],[-4.570125,48.281928],[-4.583492,48.318987],[-4.533376,48.342017],[-4.560423,48.305279],[-4.536818,48.284197],[-4.499373,48.311212],[-4.51831,48.294756],[-4.503229,48.281005],[-4.460694,48.294458],[-4.367335,48.277759],[-4.289205,48.29884],[-4.307202,48.318514],[-4.336972,48.314861],[-4.277989,48.344785],[-4.292374,48.350625],[-4.271308,48.353172],[-4.260943,48.36074],[-4.330322,48.338681],[-4.318615,48.362163],[-4.355517,48.343277],[-4.353363,48.347921],[-4.345819,48.351805],[-4.34697,48.352858],[-4.341111,48.356593],[-4.34074,48.357923],[-4.367055,48.344488],[-4.378265,48.325539],[-4.417639,48.324457],[-4.397358,48.342233],[-4.457818,48.327185],[-4.398736,48.384534],[-4.427402,48.397721],[-4.437282,48.382588],[-4.484722,48.382573],[-4.614008,48.335988],[-4.680698,48.355648],[-4.710163,48.331002],[-4.761887,48.327574],[-4.780896,48.358401],[-4.753081,48.359566],[-4.746266,48.36654],[-4.790715,48.361661],[-4.760567,48.374678],[-4.773733,48.40528],[-4.795596,48.414466],[-4.761584,48.467867],[-4.779995,48.497918],[-4.766513,48.5106],[-4.776222,48.519114],[-4.758063,48.520975],[-4.764901,48.530754],[-4.758347,48.534416],[-4.74974,48.527912],[-4.746396,48.528798],[-4.753151,48.543773],[-4.722593,48.559505],[-4.704003,48.550236],[-4.704227,48.570178],[-4.607642,48.579217],[-4.605982,48.604375],[-4.541743,48.624419],[-4.542139,48.637083],[-4.5011,48.62101],[-4.440369,48.641632],[-4.398149,48.636157],[-4.437367,48.653587],[-4.346478,48.678485],[-4.296248,48.664278],[-4.318568,48.645145],[-4.297739,48.632459],[-4.221321,48.656717],[-4.184223,48.687107],[-4.129742,48.696904],[-4.094419,48.687814],[-4.0828,48.693432],[-4.075043,48.686106],[-4.068602,48.688546],[-4.055278,48.6851],[-4.038014,48.686481],[-4.05714,48.687839],[-4.052982,48.705947],[-4.007102,48.727332],[-4.000604,48.711628],[-3.987276,48.727489],[-3.963175,48.721973],[-3.97598,48.69974],[-3.95843,48.688708],[-3.958799,48.683549],[-3.968402,48.689963],[-3.971708,48.674123],[-3.953744,48.675431],[-3.952304,48.659718],[-3.930472,48.657818],[-3.922573,48.675621],[-3.891051,48.670953],[-3.906338,48.660861],[-3.898345,48.646999],[-3.857717,48.627518],[-3.847259,48.630392],[-3.864688,48.670903],[-3.846352,48.660402],[-3.854779,48.68931],[-3.831421,48.714178],[-3.828039,48.703941],[-3.81988,48.700722],[-3.823426,48.719481],[-3.680448,48.686725],[-3.644008,48.696367],[-3.655091,48.682069],[-3.639537,48.673371],[-3.655266,48.665419],[-3.659015,48.659216],[-3.635171,48.671031],[-3.623932,48.686373],[-3.610734,48.669917],[-3.581523,48.670001],[-3.56754,48.683003],[-3.584518,48.690548],[-3.584589,48.724374],[-3.535402,48.72819],[-3.563046,48.759456],[-3.585201,48.757081],[-3.584435,48.790136],[-3.535433,48.801791],[-3.547705,48.81482],[-3.519367,48.818987],[-3.525535,48.830084],[-3.505177,48.839964],[-3.502977,48.8242],[-3.480196,48.837818],[-3.458786,48.815955],[-3.428718,48.821672],[-3.442856,48.804051],[-3.440546,48.798261],[-3.430252,48.797202],[-3.322061,48.837982],[-3.264733,48.834093],[-3.238419,48.866811],[-3.206173,48.84728],[-3.219278,48.833793],[-3.071792,48.884124],[-3.101685,48.86688],[-3.085142,48.868122],[-3.07595,48.857648],[-3.093318,48.86092],[-3.083467,48.847685],[-3.099341,48.830518],[-3.071361,48.833205],[-3.053564,48.815207],[-3.012443,48.821876],[-3.004581,48.798807],[-3.045536,48.787679],[-3.044229,48.779455],[-3.009805,48.782149],[-3.027795,48.778825],[-3.029862,48.775218],[-2.989715,48.762674],[-2.951392,48.771585],[-2.928671,48.754786],[-2.945869,48.721492],[-2.816828,48.649796],[-2.823217,48.59629],[-2.714069,48.555688],[-2.721608,48.532565],[-2.682261,48.491851],[-2.681989,48.532282],[-2.632594,48.525451],[-2.553344,48.59946],[-2.473553,48.622371],[-2.467916,48.635767],[-2.488121,48.645139],[-2.437665,48.652902],[-2.418474,48.646956],[-2.420453,48.629208],[-2.317664,48.688696],[-2.309699,48.670334],[-2.283751,48.668547],[-2.337761,48.619983],[-2.313935,48.610062],[-2.242549,48.644944],[-2.256018,48.635437],[-2.210165,48.587197],[-2.218593,48.570158],[-2.19161,48.592167],[-2.195909,48.610379],[-2.176446,48.576152],[-2.156887,48.587421],[-2.171922,48.596016],[-2.150219,48.618269],[-2.12392,48.604533],[-2.15052,48.635148],[-2.024461,48.637542],[-2.028721,48.650438],[-1.983492,48.671397],[-1.98883,48.684255],[-1.937406,48.684176],[-1.959575,48.69054],[-1.936198,48.702727],[-1.874997,48.694969],[-1.844019,48.712501],[-1.835802,48.680296],[-1.862985,48.66713],[-1.868004,48.637093],[-1.840945,48.614224],[-1.767721,48.602526]]],[[[-5.074377,48.482875],[-5.032467,48.462758],[-5.102876,48.436099],[-5.118207,48.438245],[-5.09931,48.45639],[-5.141592,48.449306],[-5.074377,48.482875]]],[[[-4.040445,48.74586],[-4.006366,48.75309],[-3.988735,48.739008],[-4.040445,48.74586]]],[[[-1.195965,45.829051],[-1.243675,45.806016],[-1.269858,45.881192],[-1.387031,45.953571],[-1.38742,45.998234],[-1.412416,46.048024],[-1.369998,46.039192],[-1.31269,45.992887],[-1.23711,45.983196],[-1.231975,45.922737],[-1.18794,45.886671],[-1.209071,45.845343],[-1.195965,45.829051]]],[[[-1.112254,45.961692],[-1.115899,45.951899],[-1.12034,45.960904],[-1.112254,45.961692]]],[[[-1.174549,46.00984],[-1.174698,46.024244],[-1.154274,46.01924],[-1.170616,46.019058],[-1.174549,46.00984]]]]}},{"type":"Feature","properties":{"CdBH":"H","LbBH":"SEINE NORMANDIE"},"geometry":{"type":"MultiPolygon","coordinates":[[[[5.463806,48.70002],[5.511038,48.68278],[5.50743,48.667718],[5.540021,48.652404],[5.522276,48.593632],[5.538802,48.573232],[5.52909,48.55586],[5.560268,48.561015],[5.605417,48.521647],[5.567916,48.444462],[5.583153,48.420667],[5.547129,48.380829],[5.555747,48.344583],[5.525918,48.320226],[5.448059,48.299544],[5.479945,48.265898],[5.47343,48.247994],[5.542428,48.241643],[5.513877,48.192843],[5.521849,48.163381],[5.491068,48.151433],[5.511617,48.130946],[5.50789,48.097029],[5.464441,48.065528],[5.48012,48.056064],[5.462331,48.043581],[5.487113,48.001293],[5.473288,47.964991],[5.50727,47.93873],[5.496036,47.911278],[5.510873,47.906933],[5.472501,47.892075],[5.473883,47.85123],[5.414349,47.831827],[5.404801,47.806401],[5.38226,47.79827],[5.306265,47.815467],[5.182264,47.774011],[5.157889,47.720687],[5.061898,47.723252],[4.980129,47.672943],[4.951434,47.690023],[4.937547,47.666397],[4.947551,47.660404],[4.880574,47.598627],[4.824984,47.602611],[4.797852,47.58619],[4.798911,47.565147],[4.767245,47.546025],[4.783359,47.533502],[4.739759,47.483237],[4.778468,47.398726],[4.775458,47.352766],[4.691124,47.29006],[4.595257,47.290247],[4.556127,47.243877],[4.553782,47.202482],[4.477761,47.239341],[4.442296,47.230455],[4.429232,47.209524],[4.371562,47.228008],[4.26906,47.215449],[4.219466,47.236336],[4.232856,47.247498],[4.217166,47.272762],[4.172893,47.275293],[4.130863,47.190743],[4.124402,47.13132],[4.100142,47.104791],[4.069909,47.101809],[4.059646,47.076071],[4.038366,47.074993],[4.042145,46.988629],[4.005394,46.951912],[3.976722,46.969198],[3.98221,46.983826],[3.949462,46.995041],[3.949221,47.028266],[3.921618,47.052119],[3.936294,47.059884],[3.919993,47.100828],[3.8552,47.127324],[3.791841,47.125719],[3.767236,47.165462],[3.646889,47.152552],[3.624869,47.200205],[3.599384,47.215582],[3.498858,47.200301],[3.475878,47.178441],[3.457248,47.204572],[3.393804,47.233217],[3.416519,47.26881],[3.389941,47.269314],[3.366243,47.321502],[3.330186,47.317432],[3.307524,47.36017],[3.268232,47.357001],[3.300006,47.436982],[3.343797,47.455782],[3.36349,47.486853],[3.307002,47.532671],[3.255545,47.553316],[3.232417,47.546664],[3.214998,47.577669],[3.185371,47.58317],[3.157558,47.561683],[3.096829,47.558111],[3.063181,47.578568],[3.055308,47.628979],[2.995046,47.665473],[2.970536,47.663427],[2.794141,47.735565],[2.710355,47.712164],[2.708254,47.727015],[2.604925,47.765438],[2.596601,47.806613],[2.554704,47.807905],[2.489539,47.842834],[2.444117,47.836043],[2.402277,47.894544],[2.340303,47.931731],[2.322471,47.986407],[2.255956,48.045709],[2.091177,48.017652],[2.023768,48.048937],[2.00965,48.067938],[2.017981,48.081908],[2.079018,48.09737],[2.102868,48.13116],[2.049545,48.141844],[2.053812,48.173341],[2.072691,48.185978],[2.037034,48.217703],[1.992547,48.226036],[1.9751,48.248575],[1.92624,48.249376],[1.936536,48.274012],[1.918848,48.299764],[1.925988,48.313652],[1.866477,48.372556],[1.737986,48.346968],[1.606745,48.388299],[1.590482,48.37766],[1.593429,48.344052],[1.554211,48.312194],[1.389199,48.369463],[1.250111,48.375822],[1.222815,48.414988],[1.018083,48.377937],[1.049661,48.400675],[0.995549,48.423505],[0.947648,48.419938],[0.973025,48.468717],[0.929479,48.496618],[0.863529,48.496121],[0.860441,48.511053],[0.803777,48.533287],[0.788177,48.560777],[0.832274,48.58073],[0.839484,48.603345],[0.828481,48.610208],[0.78684,48.594827],[0.679754,48.613688],[0.586129,48.598422],[0.528023,48.621783],[0.538554,48.641203],[0.52116,48.654074],[0.438579,48.67124],[0.349658,48.66269],[0.301813,48.607801],[0.204328,48.593272],[0.170248,48.566224],[0.165969,48.579158],[0.101148,48.576243],[0.042167,48.547101],[-0.078238,48.566641],[-0.130747,48.543122],[-0.237029,48.569078],[-0.220086,48.598028],[-0.245022,48.608712],[-0.238536,48.617955],[-0.288231,48.601664],[-0.493711,48.661458],[-0.488494,48.684667],[-0.457024,48.698408],[-0.455725,48.723289],[-0.491312,48.742999],[-0.6052,48.696258],[-0.699629,48.730814],[-0.71288,48.718187],[-0.771451,48.719888],[-0.833419,48.753558],[-0.861769,48.734996],[-0.825412,48.675896],[-0.860825,48.654696],[-0.842468,48.636028],[-0.782314,48.621577],[-0.769862,48.56252],[-0.833667,48.533415],[-0.952608,48.521548],[-0.914765,48.46544],[-0.940032,48.447692],[-0.922747,48.417065],[-0.963749,48.377124],[-1.022164,48.359159],[-1.047008,48.379417],[-1.107139,48.383042],[-1.143822,48.451219],[-1.172971,48.465664],[-1.207531,48.44253],[-1.198751,48.426928],[-1.226851,48.422375],[-1.306633,48.486113],[-1.308109,48.505903],[-1.375241,48.549082],[-1.427053,48.554032],[-1.445891,48.58162],[-1.455945,48.62041],[-1.427804,48.643662],[-1.350936,48.631285],[-1.401052,48.658411],[-1.375875,48.685344],[-1.372155,48.693794],[-1.446044,48.654897],[-1.45044,48.670685],[-1.503976,48.684816],[-1.529121,48.729898],[-1.570442,48.743162],[-1.574427,48.821548],[-1.614573,48.834214],[-1.583685,48.850812],[-1.564094,48.922758],[-1.561074,48.927291],[-1.552436,48.935579],[-1.562639,48.913977],[-1.555058,48.893621],[-1.54849,48.893412],[-1.543232,48.93147],[-1.562273,48.941372],[-1.56124,49.004199],[-1.551709,48.998298],[-1.557201,49.02641],[-1.53586,49.038845],[-1.569762,49.031582],[-1.581512,49.00394],[-1.568416,48.996301],[-1.577474,48.998414],[-1.58637,49.006806],[-1.610725,49.099095],[-1.578492,49.141932],[-1.593136,49.136704],[-1.614189,49.217978],[-1.567406,49.220965],[-1.615748,49.23926],[-1.62956,49.212493],[-1.678486,49.280764],[-1.657434,49.281816],[-1.685733,49.288663],[-1.70803,49.319879],[-1.674619,49.332141],[-1.717049,49.346368],[-1.717612,49.331354],[-1.70077,49.333522],[-1.719504,49.325164],[-1.787472,49.374936],[-1.756996,49.368322],[-1.75924,49.373832],[-1.771988,49.380269],[-1.809527,49.372351],[-1.849274,49.506184],[-1.88935,49.533992],[-1.838384,49.577995],[-1.847427,49.626393],[-1.872066,49.657195],[-1.947035,49.674584],[-1.93604,49.692366],[-1.948488,49.716407],[-1.925838,49.727333],[-1.883272,49.705872],[-1.851934,49.718534],[-1.823293,49.69052],[-1.586649,49.650902],[-1.508995,49.660892],[-1.486191,49.668943],[-1.473393,49.696958],[-1.420807,49.705246],[-1.266415,49.695464],[-1.272663,49.679609],[-1.239384,49.654311],[-1.228391,49.607203],[-1.255651,49.612393],[-1.27239,49.57069],[-1.26981,49.583686],[-1.296438,49.583213],[-1.307603,49.541634],[-1.16185,49.391432],[-1.179976,49.377738],[-1.18337,49.34613],[-1.213804,49.331337],[-1.222366,49.322408],[-1.15565,49.362315],[-1.116215,49.345461],[-1.118484,49.360152],[-1.075037,49.389348],[-0.94716,49.39581],[-0.797977,49.354098],[-0.39742,49.33346],[-0.227223,49.277],[-0.245862,49.273383],[-0.249374,49.260098],[-0.218991,49.271061],[-0.219665,49.284923],[-0.158506,49.287162],[-0.099059,49.297793],[-0.090136,49.298297],[-0.089047,49.29706],[-0.102891,49.295997],[-0.111249,49.285653],[-0.000305,49.325656],[0.121073,49.398367],[0.118401,49.469475],[0.066235,49.518391],[0.151489,49.642376],[0.16382,49.686098],[0.206259,49.714279],[0.33706,49.746962],[0.58367,49.852711],[0.787938,49.874993],[0.957021,49.918883],[1.024289,49.916242],[1.106351,49.936746],[1.201404,49.971205],[1.433897,50.095527],[1.441683,50.079666],[1.527081,50.052363],[1.728458,50.01099],[1.767427,49.966487],[1.705197,49.919789],[1.711507,49.907746],[1.955748,49.821367],[1.798722,49.747191],[1.816593,49.740516],[1.816217,49.719627],[1.798456,49.709437],[1.813332,49.669018],[1.9143,49.659085],[2.066576,49.597219],[2.130942,49.607092],[2.209297,49.562212],[2.29492,49.557341],[2.336338,49.57797],[2.560059,49.544109],[2.614883,49.547273],[2.62459,49.578102],[2.75016,49.635067],[2.831641,49.614679],[2.876515,49.625507],[2.884726,49.651659],[2.918352,49.673137],[2.96031,49.636995],[3.004983,49.675034],[3.07991,49.691697],[3.130643,49.673647],[3.206721,49.69643],[3.226913,49.731668],[3.291512,49.730701],[3.316666,49.768192],[3.310116,49.788908],[3.379664,49.819698],[3.366089,49.829197],[3.413648,49.852231],[3.408183,49.865992],[3.445601,49.898189],[3.511279,49.920676],[3.517476,49.941734],[3.552726,49.956113],[3.555117,49.977728],[3.634442,50.005891],[3.723243,50.029308],[3.843869,50.029349],[3.905074,49.987794],[4.002844,49.967011],[4.035445,49.992314],[4.084022,49.994025],[4.103497,50.015744],[4.221764,50.02824],[4.239853,49.999089],[4.357535,50.007476],[4.343728,49.984077],[4.363612,49.986388],[4.368431,49.96109],[4.33262,49.9469],[4.445715,49.927183],[4.450793,49.917512],[4.347919,49.905614],[4.371962,49.834546],[4.421797,49.827637],[4.358508,49.778425],[4.363068,49.744528],[4.434286,49.739661],[4.426811,49.717628],[4.453014,49.709052],[4.453439,49.679731],[4.495543,49.662304],[4.514135,49.634874],[4.639472,49.62859],[4.659953,49.584458],[4.747215,49.548486],[4.760775,49.530386],[4.739699,49.510813],[4.735829,49.475393],[4.828872,49.464203],[4.826771,49.443109],[4.801794,49.428164],[4.804862,49.40691],[4.865432,49.398175],[4.862631,49.413441],[4.921722,49.425093],[4.945411,49.458169],[4.97976,49.47322],[5.018071,49.455513],[5.01984,49.423486],[5.080059,49.39759],[5.058995,49.324845],[5.091455,49.281109],[5.166191,49.267595],[5.15957,49.238595],[5.171743,49.217064],[5.191252,49.215954],[5.196721,49.178782],[5.246739,49.15188],[5.25964,49.108892],[5.285315,49.097077],[5.284579,49.064067],[5.321211,49.047952],[5.311246,49.01437],[5.273851,48.995045],[5.324611,48.978344],[5.358905,48.938872],[5.390432,48.93502],[5.397924,48.91354],[5.370145,48.885839],[5.421718,48.847063],[5.412914,48.830516],[5.432436,48.816797],[5.421396,48.77498],[5.44895,48.759474],[5.463806,48.70002]]]]}}]}